815 Coppelia,e,13.8598,57.0985,59.5085,2.659440,0.2272578,0.075800,29.1783,01/13.0/2016,2000,H10.7,0.15
# From MPO350804
816 Juliana,e,14.3300,127.8635,21.0119,3.001396,0.1895480,0.109823,66.1011,01/13.0/2016,2000,H10.4,0.15
# From MPO355099
817 Annika,e,11.3392,125.6311,284.5935,2.590376,0.2364068,0.178291,43.3837,01/13.0/2016,2000,H10.6,0.15
# From MPO355099
818 Kapteynia,e,15.6626,70.8199,293.1698,3.169845,0.1746414,0.094770,3.3727,01/13.0/2016,2000,H 9.2,0.15
# From MPO355099
819 Barnardiana,e,4.8983,333.1640,306.4043,2.197375,0.3025853,0.142166,122.4821,01/13.0/2016,2000,H12.0,0.15
# From MPO355099
820 Adriana,e,5.9337,118.4798,192.4547,3.131363,0.1778705,0.049417,249.5549,01/13.0/2016,2000,H10.4,0.15
# From MPO355099
821 Fanny,e,5.3995,209.7587,33.0450,2.771661,0.2135964,0.212353,168.4388,01/13.0/2016,2000,H11.84,0.15
# From MPO347520
822 Lalage,e,0.7159,210.0949,247.0210,2.255795,0.2909072,0.154667,237.0080,01/13.0/2016,2000,H12.18,0.15
# From MPO344300
823 Sisigambis,e,3.6458,255.0295,218.6066,2.221063,0.2977575,0.090190,117.0486,01/13.0/2016,2000,H11.2,0.15
# From MPO355099
824 Anastasia,e,8.1261,141.4032,142.0690,2.793384,0.2111097,0.136923,42.8978,01/13.0/2016,2000,H10.41,0.15
# From MPO337249
825 Tanina,e,3.3995,101.4176,111.3433,2.225840,0.2967995,0.074918,358.2375,01/13.0/2016,2000,H11.50,0.15
# From MPO355099
826 Henrika,e,7.1047,230.2386,36.8967,2.713035,0.2205571,0.205147,58.7608,01/13.0/2016,2000,H11.6,0.15
# From MPO344300
827 Wolfiana,e,3.4230,172.9171,195.3517,2.274443,0.2873370,0.157242,332.8406,01/13.0/2016,2000,H13.1,0.15
# From MPO355099
828 Lindemannia,e,1.1313,1.9030,289.3917,3.194954,0.1725867,0.030015,222.6031,01/13.0/2016,2000,H10.33,0.15
# From MPO355099
829 Academia,e,8.2841,352.5045,41.2267,2.579931,0.2378438,0.100064,305.7281,01/13.0/2016,2000,H11.0,0.15
# From MPO355099
830 Petropolitana,e,3.8170,340.7568,86.1313,3.210570,0.1713290,0.061451,28.0870,01/13.0/2016,2000,H 9.10,0.15
# From MPO355099
831 Stateira,e,4.8362,178.0837,224.8525,2.212101,0.2995688,0.145497,31.4528,01/13.0/2016,2000,H13.1,0.15
# From MPO355099
832 Karin,e,1.0034,254.0688,121.8684,2.867072,0.2030234,0.079132,159.9159,01/13.0/2016,2000,H11.18,0.15
# From MPO355099
833 Monica,e,9.7889,353.1643,35.9722,3.009858,0.1887491,0.121525,343.9664,01/13.0/2016,2000,H11.1,0.15
# From MPO337249
834 Burnhamia,e,3.9772,182.7024,90.8192,3.186042,0.1733113,0.201427,290.6943,01/13.0/2016,2000,H 9.39,0.15
# From MPO355099
835 Olivia,e,3.7062,309.2165,62.3638,3.218321,0.1707105,0.089959,93.4173,01/13.0/2016,2000,H11.4,0.15
# From MPO340697
836 Jole,e,4.8473,199.8085,179.8077,2.189696,0.3041783,0.176886,213.8186,01/13.0/2016,2000,H13.2,0.15
# From MPO355100
837 Schwarzschilda,e,6.7353,200.0496,173.1494,2.298846,0.2827739,0.040788,165.0635,01/13.0/2016,2000,H12.3,0.15
# From MPO355100
838 Seraphina,e,10.4158,240.1179,116.5926,2.897273,0.1998573,0.134437,56.3416,01/13.0/2016,2000,H10.09,0.15
# From MPO337249
839 Valborg,e,12.6092,338.2205,339.2920,2.617139,0.2327897,0.151566,216.7388,01/13.0/2016,2000,H10.6,0.15
# From MPO355100
840 Zenobia,e,9.9852,272.7814,10.3594,3.132065,0.1778107,0.099656,37.5580,01/13.0/2016,2000,H10.0,0.15
# From MPO355100
841 Arabella,e,3.7909,354.7330,120.4218,2.255285,0.2910059,0.069481,13.0460,01/13.0/2016,2000,H12.92,0.15
# From MPO355100
842 Kerstin,e,14.5502,5.6762,351.4850,3.233071,0.1695436,0.121701,80.6835,01/13.0/2016,2000,H10.6,0.15
# From MPO337249
843 Nicolaia,e,8.0014,4.0941,317.1731,2.278933,0.2864883,0.209841,333.9722,01/13.0/2016,2000,H13.8,0.15
# From MPO355100
844 Leontina,e,8.7910,348.7681,349.9815,3.209492,0.1714153,0.068205,180.5967,01/13.0/2016,2000,H 9.6,0.15
# From MPO350804
845 Naema,e,12.6097,43.1581,295.3903,2.938715,0.1956446,0.069148,311.9313,01/13.0/2016,2000,H10.2,0.15
# From MPO355100
846 Lipperta,e,0.2642,261.4550,129.2276,3.126859,0.1782550,0.182503,351.8988,01/13.0/2016,2000,H10.26,0.15
# From MPO344301
847 Agnia,e,2.4813,270.9469,130.3858,2.782050,0.2124011,0.095283,165.4796,01/13.0/2016,2000,H10.29,0.15
# From MPO355100
848 Inna,e,1.0458,207.9857,124.8010,3.106140,0.1800415,0.167663,129.7372,01/13.0/2016,2000,H11.3,0.15
# From MPO355100
849 Ara,e,19.5258,228.3703,63.3485,3.148364,0.1764317,0.199537,40.7288,01/13.0/2016,2000,H 8.10,0.15
# From MPO350804
850 Altona,e,15.5430,121.1546,134.4581,3.000409,0.1896415,0.124644,15.8538,01/13.0/2016,2000,H 9.6,0.15
# From MPO355100
851 Zeissia,e,2.3920,141.2037,7.3248,2.228464,0.2962753,0.090086,42.1615,01/13.0/2016,2000,H11.62,0.15
# From MPO355100
852 Wladilena,e,23.0193,27.3059,282.3343,2.361862,0.2715328,0.275020,93.2819,01/13.0/2016,2000,H10.0,0.15
# From MPO355100
853 Nansenia,e,9.2170,182.8638,59.9490,2.312680,0.2802403,0.105384,100.7866,01/13.0/2016,2000,H11.67,0.15
# From MPO355100
854 Frostia,e,6.0881,190.5992,84.3654,2.368766,0.2703466,0.173823,74.4608,01/13.0/2016,2000,H12.0,0.15
# From MPO355100
855 Newcombia,e,10.8856,17.1329,234.0493,2.361922,0.2715224,0.178890,137.1026,01/13.0/2016,2000,H11.7,0.15
# From MPO350804
856 Backlunda,e,14.3206,125.5790,72.9593,2.435447,0.2593200,0.118536,82.8934,01/13.0/2016,2000,H10.69,0.15
# From MPO355100
857 Glasenappia,e,5.3004,82.9604,238.6909,2.190587,0.3039929,0.088562,172.3407,01/13.0/2016,2000,H11.32,0.15
# From MPO344301
858 El Djezair,e,8.8725,67.2037,179.0047,2.811505,0.2090720,0.101821,60.5334,01/13.0/2016,2000,H10.2,0.15
# From MPO355100
859 Bouzareah,e,13.5107,35.8138,18.3709,3.226708,0.1700453,0.105688,47.6692,01/13.0/2016,2000,H 9.7,0.15
# From MPO355100
860 Ursina,e,13.3028,309.4311,20.9304,2.799360,0.2104341,0.105585,206.2607,01/13.0/2016,2000,H10.26,0.15
# From MPO355100
861 Aida,e,8.0493,115.0323,193.9138,3.139096,0.1772137,0.102567,89.1996,01/13.0/2016,2000,H 9.7,0.15
# From MPO355100
862 Franzia,e,13.8937,300.1434,121.1264,2.805095,0.2097890,0.080276,77.7398,01/13.0/2016,2000,H 9.8,0.15
# From MPO344301
863 Benkoela,e,25.4183,116.9469,95.4432,3.200199,0.1721625,0.029533,18.7634,01/13.0/2016,2000,H 9.02,0.15
# From MPO344301
864 Aase,e,5.4506,163.1556,194.0074,2.207909,0.3004224,0.190964,267.5769,01/13.0/2016,2000,H12.87,0.15
# From MPO347520
865 Zubaida,e,13.3423,177.0711,301.5182,2.416748,0.2623355,0.194237,132.7492,01/13.0/2016,2000,H11.7,0.15
# From MPO355100
866 Fatme,e,8.6487,91.2920,259.2604,3.123386,0.1785524,0.055062,113.0564,01/13.0/2016,2000,H 9.5,0.15
# From MPO347520
867 Kovacia,e,5.9749,46.8352,70.0049,3.066132,0.1835768,0.128876,180.1912,01/13.0/2016,2000,H11.4,0.15
# From MPO347520
868 Lova,e,5.8383,115.7964,287.1359,2.702289,0.2218740,0.149404,229.1397,01/13.0/2016,2000,H10.22,0.15
# From MPO355100
869 Mellena,e,7.8375,154.9231,107.2600,2.689939,0.2234037,0.219686,92.5784,01/13.0/2016,2000,H11.9,0.15
# From MPO344301
870 Manto,e,6.1913,120.8177,196.9273,2.322583,0.2784499,0.264401,258.0849,01/13.0/2016,2000,H11.6,0.15
# From MPO355100
871 Amneris,e,4.2507,158.0269,66.3821,2.222143,0.2975405,0.120213,280.7548,01/13.0/2016,2000,H12.5,0.15
# From MPO355100
872 Holda,e,7.3727,194.7403,17.5695,2.732823,0.2181659,0.079880,324.5074,01/13.0/2016,2000,H 9.91,0.15
# From MPO350804
873 Mechthild,e,5.2741,150.0452,110.1347,2.627524,0.2314110,0.148403,37.8357,01/13.0/2016,2000,H11.49,0.15
# From MPO355100
874 Rotraut,e,11.1487,190.6953,11.4718,3.152055,0.1761219,0.079396,248.1335,01/13.0/2016,2000,H10.0,0.15
# From MPO350804
875 Nymphe,e,14.5744,196.0956,117.4484,2.552940,0.2416258,0.151531,354.9609,01/13.0/2016,2000,H11.2,0.15
# From MPO344301
876 Scott,e,11.3609,150.9676,211.6757,3.008490,0.1888779,0.113061,233.1471,01/13.0/2016,2000,H10.89,0.15
# From MPO344301
877 Walkure,e,4.2552,116.3863,276.1392,2.486387,0.2513917,0.160396,180.1594,01/13.0/2016,2000,H10.71,0.15
# From MPO355100
878 Mildred,e,2.0626,172.8284,190.0110,2.362386,0.2714425,0.225479,144.7974,01/13.0/2016,2000,H14.7,0.15
# From MPO355100
879 Ricarda,e,13.6747,270.0212,96.3155,2.532250,0.2445932,0.154069,118.6685,01/13.0/2016,2000,H11.0,0.15
# From MPO344301
880 Herba,e,15.1463,262.6208,101.1389,2.997745,0.1898943,0.323171,302.9747,01/13.0/2016,2000,H11.46,0.15
# From MPO355100
881 Athene,e,14.1881,277.1361,41.2249,2.611903,0.2334901,0.206999,107.9903,01/13.0/2016,2000,H11.7,0.15
# From MPO344301
882 Swetlana,e,6.1255,256.3149,126.6653,3.124034,0.1784968,0.266146,225.9713,01/13.0/2016,2000,H10.6,0.15
# From MPO355100
883 Matterania,e,4.7178,285.6050,42.1267,2.238251,0.2943343,0.198980,152.9828,01/13.0/2016,2000,H12.59,0.15
# From MPO355100
884 Priamus,e,8.9135,301.5582,335.7365,5.182340,0.0835440,0.121430,190.6056,01/13.0/2016,2000,H 8.81,0.15
# From MPO355100
885 Ulrike,e,3.3044,149.0523,204.4621,3.093356,0.1811587,0.187350,27.8369,01/13.0/2016,2000,H10.7,0.15
# From MPO355100
886 Washingtonia,e,16.8220,59.0061,301.6569,3.176875,0.1740619,0.267662,182.8714,01/13.0/2016,2000,H 9.3,0.15
# From MPO344301
887 Alinda,e,9.3575,110.5523,350.3461,2.478760,0.2525528,0.567217,250.3636,01/13.0/2016,2000,H13.4,-0.12
# From MPO355100
888 Parysatis,e,13.8471,124.1558,297.4303,2.710004,0.2209272,0.191843,21.4678,01/13.0/2016,2000,H 9.51,0.15
# From MPO347520
889 Erynia,e,8.1000,132.7122,277.7047,2.446789,0.2575190,0.203717,291.4652,01/13.0/2016,2000,H10.9,0.15
# From MPO355100
890 Waltraut,e,10.8722,160.6842,90.3463,3.022180,0.1875960,0.059407,136.9105,01/13.0/2016,2000,H10.78,0.15
# From MPO347520
891 Gunhild,e,13.5566,105.8757,294.6245,2.860062,0.2037703,0.030160,264.2776,01/13.0/2016,2000,H10.0,0.15
# From MPO355100
892 Seeligeria,e,21.3292,175.9265,287.7822,3.231567,0.1696619,0.102554,49.1731,01/13.0/2016,2000,H 9.6,0.15
# From MPO355100
893 Leopoldina,e,17.0198,145.0538,223.1199,3.050555,0.1849847,0.149886,355.1507,01/13.0/2016,2000,H 9.47,0.15
# From MPO355100
894 Erda,e,12.7192,190.6441,114.8028,3.123671,0.1785279,0.110871,225.5932,01/13.0/2016,2000,H 9.6,0.15
# From MPO347520
895 Helio,e,26.0804,264.7089,178.1381,3.201853,0.1720291,0.145737,206.7966,01/13.0/2016,2000,H 8.3,0.15
# From MPO355100
896 Sphinx,e,8.1877,254.1985,2.0280,2.285502,0.2852539,0.163360,115.2194,01/13.0/2016,2000,H11.6,0.15
